{
"type": "FeatureCollection",
"name": "coastal_businesses",
"crs": { "type": "name", "properties": { "name": "urn:ogc:def:crs:OGC:1.3:CRS84" } },
"features": [
{ "type": "Feature", "properties": { "osm_id": 327943260, "osm_type": "way", "name": "Museum Agung Bung Karno", "business_type": "Museum", "marine_relevance": "Coastal proximity", "tourism": "museum", "amenity": "", "leisure": "", "shop": "", "sport": "", "address": "Raya Puputan", "village": "", "phone": "+6281384500092", "website": "", "opening_hours": "", "coastal_distance_m": 614.8, "source": "OpenStreetMap" }, "geometry": { "type": "Point", "coordinates": [ 115.2254265, -8.6723201 ] } }
]
}
